IRIDIUM 136             
1 42962U 17061H   24202.89396659  .00000069  00000+0  17468-4 0  9997
2 42962  86.3991 316.2318 0002344 101.4740 258.6719 14.34217215355039
